[{"OBJECT_NAME":"STARLINK-31327","OBJECT_ID":"2024-044J","EPOCH":"2026-03-09T02:25:59.859264","MEAN_MOTION":15.27571368,"ECCENTRICITY":1.424e-5,"INCLINATION":42.9989,"RA_OF_ASC_NODE":110.5181,"ARG_OF_PERICENTER":312.1995,"MEAN_ANOMALY":47.8844,"EPHEMERIS_TYPE":0,"CLASSIFICATION_TYPE":"U","NORAD_CAT_ID":59160,"ELEMENT_SET_NO":999,"REV_AT_EPOCH":11350,"BSTAR":-4.5536342e-5,"MEAN_MOTION_DOT":-1.514e-5,"MEAN_MOTION_DDOT":0},{"OBJECT_NAME":"AIST-2 (RS43)","OBJECT_ID":"2013-015D","EPOCH":"2026-03-09T22:52:25.813056","MEAN_MOTION":15.25079544,"ECCENTRICITY":0.00239979,"INCLINATION":64.8687,"RA_OF_ASC_NODE":221.5348,"ARG_OF_PERICENTER":248.8384,"MEAN_ANOMALY":111.0181,"EPHEMERIS_TYPE":0,"CLASSIFICATION_TYPE":"U","NORAD_CAT_ID":39133,"ELEMENT_SET_NO":999,"REV_AT_EPOCH":70876,"BSTAR":0.00037899099,"MEAN_MOTION_DOT":9.402e-5,"MEAN_MOTION_DDOT":0}]
